SPACEMOBILE-004         
1 61049U 24163E   26193.40140888  .00012717  00000+0  58302-3 0  9998
2 61049  52.9682 192.9673 0006853 216.7757 143.2768 15.20795560101607
CZ-8A R/B               
1 66004U 25231K   26195.58261831 -.00000063  00000+0  36055-4 0  9998
2 66004  50.0043 282.7651 0116561 320.4534  38.7920 14.30162108 38862
SZ-21 MODULE            
1 66515U 25246C   26195.24682851  .00035282  00000+0  19573-3 0  9998
2 66515  41.4712 138.4953 0008086 214.4776 145.5545 15.78746533 38010
SPACEMOBILE-006         
1 67232U 25309A   26195.35532883  .00000571  00000+0  42569-4 0  9991
2 67232  52.9935 207.1822 0010178 212.4448 147.5920 15.18652187 30723
SPACEMOBILE-008         
1 69589U 26139A   26195.55824432 -.00000080  00000+0  12477-4 0  9997
2 69589  52.9947 138.2992 0005050  54.8997 305.2467 15.12801501  4129
SPACEMOBILE-009         
1 69590U 26139B   26195.56016190 -.00000039  00000+0  14846-4 0  9990
2 69590  52.9938 138.3057 0005292  50.8296 309.3164 15.12694817  4129
SPACEMOBILE-010         
1 69591U 26139C   26195.56320446  .00000106  00000+0  23070-4 0  9996
2 69591  52.9945 138.3273 0005219  42.8328 317.3069 15.12526901  4136
